{
  "type": "FeatureCollection",
  "features": [
    {
      "type": "Feature",
      "properties": {
        "norad_id": 33412,
        "name": "COSMO-SKYMED 3",
        "group": "resource",
        "lat": -10.833583667399866,
        "lon": -147.7092902727793,
        "alt_km": 563.3978491112621,
        "timestamp": "2025-12-26T03:50:11.744418+00:00",
        "meta_object_name": "COSMO-SKYMED 3",
        "meta_object_id": "2008-054A",
        "meta_epoch": "2025-12-25T19:54:33.333408",
        "meta_mean_motion": 15.05468881,
        "meta_eccentricity": 0.0017147,
        "meta_inclination": 97.8451,
        "meta_ra_of_asc_node": 210.443,
        "meta_arg_of_pericenter": 129.5422,
        "meta_mean_anomaly": 230.7322,
        "meta_ephemeris_type": 0,
        "meta_classification_type": "U",
        "meta_norad_cat_id": 33412,
        "meta_element_set_no": 999,
        "meta_rev_at_epoch": 93084,
        "meta_bstar": 0.00043418,
        "meta_mean_motion_dot": 6.195e-05,
        "meta_mean_motion_ddot": 0,
        "tle_line1": "1 33412U 08054A   25359.82955247  .00006195  00000+0  43418-3 0  9999",
        "tle_line2": "2 33412  97.8451 210.4430 0017147 129.5422 230.7322 15.05468881930847"
      },
      "geometry": {
        "type": "Point",
        "coordinates": [
          -147.7092902727793,
          -10.833583667399866
        ]
      }
    },
    {
      "type": "Feature",
      "properties": {
        "norad_id": 33446,
        "name": "YAOGAN-4",
        "group": "resource",
        "lat": -44.52168253673126,
        "lon": -62.00283744345242,
        "alt_km": 620.4424655873772,
        "timestamp": "2025-12-26T03:50:11.744429+00:00",
        "meta_object_name": "YAOGAN-4",
        "meta_object_id": "2008-061A",
        "meta_epoch": "2025-12-25T18:19:17.173344",
        "meta_mean_motion": 14.8271976,
        "meta_eccentricity": 0.0012966,
        "meta_inclination": 97.9198,
        "meta_ra_of_asc_node": 289.7359,
        "meta_arg_of_pericenter": 277.0684,
        "meta_mean_anomaly": 82.9055,
        "meta_ephemeris_type": 0,
        "meta_classification_type": "U",
        "meta_norad_cat_id": 33446,
        "meta_element_set_no": 999,
        "meta_rev_at_epoch": 91996,
        "meta_bstar": 0.00018511,
        "meta_mean_motion_dot": 1.442e-05,
        "meta_mean_motion_ddot": 0,
        "tle_line1": "1 33446U 08061A   25359.76339321  .00001442  00000+0  18511-3 0  9992",
        "tle_line2": "2 33446  97.9198 289.7359 0012966 277.0684  82.9055 14.82719760919964"
      },
      "geometry": {
        "type": "Point",
        "coordinates": [
          -62.00283744345242,
          -44.52168253673126
        ]
      }
    },
    {
      "type": "Feature",
      "properties": {
        "norad_id": 33492,
        "name": "GOSAT (IBUKI)",
        "group": "resource",
        "lat": -4.241165589967607,
        "lon": 109.18009695044852,
        "alt_km": 672.6630327720113,
        "timestamp": "2025-12-26T03:50:11.744440+00:00",
        "meta_object_name": "GOSAT (IBUKI)",
        "meta_object_id": "2009-002A",
        "meta_epoch": "2025-12-25T19:40:27.371136",
        "meta_mean_motion": 14.67549933,
        "meta_eccentricity": 0.0001031,
        "meta_inclination": 98.0771,
        "meta_ra_of_asc_node": 108.2414,
        "meta_arg_of_pericenter": 105.3017,
        "meta_mean_anomaly": 254.8301,
        "meta_ephemeris_type": 0,
        "meta_classification_type": "U",
        "meta_norad_cat_id": 33492,
        "meta_element_set_no": 999,
        "meta_rev_at_epoch": 90603,
        "meta_bstar": 0.00017176,
        "meta_mean_motion_dot": 9.26e-06,
        "meta_mean_motion_ddot": 0,
        "tle_line1": "1 33492U 09002A   25359.81976124  .00000926  00000+0  17176-3 0  9995",
        "tle_line2": "2 33492  98.0771 108.2414 0001031 105.3017 254.8301 14.67549933906039"
      },
      "geometry": {
        "type": "Point",
        "coordinates": [
          109.18009695044852,
          -4.241165589967607
        ]
      }
    },
    {
      "type": "Feature",
      "properties": {
        "norad_id": 35681,
        "name": "DEIMOS-1",
        "group": "resource",
        "lat": 69.65973064270187,
        "lon": 138.6870025065165,
        "alt_km": 636.8156274448329,
        "timestamp": "2025-12-26T03:50:11.744451+00:00",
        "meta_object_name": "DEIMOS-1",
        "meta_object_id": "2009-041A",
        "meta_epoch": "2025-12-25T21:00:10.381824",
        "meta_mean_motion": 14.74971139,
        "meta_eccentricity": 0.0002449,
        "meta_inclination": 97.7158,
        "meta_ra_of_asc_node": 159.8676,
        "meta_arg_of_pericenter": 59.4812,
        "meta_mean_anomaly": 300.6639,
        "meta_ephemeris_type": 0,
        "meta_classification_type": "U",
        "meta_norad_cat_id": 35681,
        "meta_element_set_no": 999,
        "meta_rev_at_epoch": 88133,
        "meta_bstar": 9.1256e-05,
        "meta_mean_motion_dot": 5.66e-06,
        "meta_mean_motion_ddot": 0,
        "tle_line1": "1 35681U 09041A   25359.87512016  .00000566  00000+0  91256-4 0  9994",
        "tle_line2": "2 35681  97.7158 159.8676 0002449  59.4812 300.6639 14.74971139881338"
      },
      "geometry": {
        "type": "Point",
        "coordinates": [
          138.6870025065165,
          69.65973064270187
        ]
      }
    },
    {
      "type": "Feature",
      "properties": {
        "norad_id": 35682,
        "name": "DUBAISAT-1",
        "group": "resource",
        "lat": -10.02156930471362,
        "lon": 132.0630113568478,
        "alt_km": 649.7866533644437,
        "timestamp": "2025-12-26T03:50:11.744462+00:00",
        "meta_object_name": "DUBAISAT-1",
        "meta_object_id": "2009-041B",
        "meta_epoch": "2025-12-25T14:51:15.709248",
        "meta_mean_motion": 14.7463875,
        "meta_eccentricity": 0.0009257,
        "meta_inclination": 97.9798,
        "meta_ra_of_asc_node": 130.1097,
        "meta_arg_of_pericenter": 268.0894,
        "meta_mean_anomaly": 91.9254,
        "meta_ephemeris_type": 0,
        "meta_classification_type": "U",
        "meta_norad_cat_id": 35682,
        "meta_element_set_no": 999,
        "meta_rev_at_epoch": 87951,
        "meta_bstar": 0.00021668,
        "meta_mean_motion_dot": 1.396e-05,
        "meta_mean_motion_ddot": 0,
        "tle_line1": "1 35682U 09041B   25359.61893182  .00001396  00000+0  21668-3 0  9994",
        "tle_line2": "2 35682  97.9798 130.1097 0009257 268.0894  91.9254 14.74638750879511"
      },
      "geometry": {
        "type": "Point",
        "coordinates": [
          132.0630113568478,
          -10.02156930471362
        ]
      }
    },
    {
      "type": "Feature",
      "properties": {
        "norad_id": 35931,
        "name": "OCEANSAT-2",
        "group": "resource",
        "lat": 30.19646071905187,
        "lon": -175.77505237741482,
        "alt_km": 902.2724645327089,
        "timestamp": "2025-12-26T03:50:11.744473+00:00",
        "meta_object_name": "OCEANSAT-2",
        "meta_object_id": "2009-051A",
        "meta_epoch": "2025-12-25T21:58:44.069376",
        "meta_mean_motion": 13.99622975,
        "meta_eccentricity": 0.0015879,
        "meta_inclination": 98.2218,
        "meta_ra_of_asc_node": 359.1793,
        "meta_arg_of_pericenter": 10.3883,
        "meta_mean_anomaly": 349.7609,
        "meta_ephemeris_type": 0,
        "meta_classification_type": "U",
        "meta_norad_cat_id": 35931,
        "meta_element_set_no": 999,
        "meta_rev_at_epoch": 85509,
        "meta_bstar": 2.89e-05,
        "meta_mean_motion_dot": 5e-08,
        "meta_mean_motion_ddot": 0,
        "tle_line1": "1 35931U 09051A   25359.91578784  .00000005  00000+0  28900-4 0  9996",
        "tle_line2": "2 35931  98.2218 359.1793 0015879  10.3883 349.7609 13.99622975855091"
      },
      "geometry": {
        "type": "Point",
        "coordinates": [
          -175.77505237741482,
          30.19646071905187
        ]
      }
    },
    {
      "type": "Feature",
      "properties": {
        "norad_id": 35946,
        "name": "WORLDVIEW-2 (WV-2)",
        "group": "resource",
        "lat": -50.15267092391435,
        "lon": 81.35428819900235,
        "alt_km": 772.7736365381561,
        "timestamp": "2025-12-26T03:50:11.744484+00:00",
        "meta_object_name": "WORLDVIEW-2 (WV-2)",
        "meta_object_id": "2009-055A",
        "meta_epoch": "2025-12-25T19:43:17.793408",
        "meta_mean_motion": 14.3772974,
        "meta_eccentricity": 0.000468,
        "meta_inclination": 98.4772,
        "meta_ra_of_asc_node": 70.7266,
        "meta_arg_of_pericenter": 38.2577,
        "meta_mean_anomaly": 321.8942,
        "meta_ephemeris_type": 0,
        "meta_classification_type": "U",
        "meta_norad_cat_id": 35946,
        "meta_element_set_no": 999,
        "meta_rev_at_epoch": 85073,
        "meta_bstar": 7.4039e-05,
        "meta_mean_motion_dot": 1.79e-06,
        "meta_mean_motion_ddot": 0,
        "tle_line1": "1 35946U 09055A   25359.82173372  .00000179  00000+0  74039-4 0  9996",
        "tle_line2": "2 35946  98.4772  70.7266 0004680  38.2577 321.8942 14.37729740850730"
      },
      "geometry": {
        "type": "Point",
        "coordinates": [
          81.35428819900235,
          -50.15267092391435
        ]
      }
    }
  ]
}